SIRIUS-1                
1 26390U 00035A   15079.35582594 -.00000003  00000-0  00000+0 0  9994
2 26390  59.8644 237.1662 2649085 269.2106  64.0088  1.00272997 53916
SIRIUS-2                
1 26483U 00051A   15078.65902185  .00000088  00000-0  00000+0 0  9991
2 26483  64.3232 117.0513 2662722 270.9560 289.0141  1.00282206 53249
SIRIUS-3                
1 26626U 00077A   15071.26213034 -.00000100  00000-0  00000+0 0  9992
2 26626  64.5099 356.8811 2686028 269.4471 262.2221  1.00282085 52307
XM-1 (ROLL)             
1 26761U 01018A   15077.61283609 -.00000048  00000-0  10000-3 0  9994
2 26761   0.1529 267.3014 0003388 316.2697  57.6165  1.00271717 50821
XM-3 (RHYTHM)           
1 28626U 05008A   15081.17365370 -.00000233  00000-0  10000-3 0  9997
2 28626   0.0174  62.0089 0000246  10.5702  84.1426  1.00269749 36901
XM-4 (BLUES)            
1 29520U 06049A   15080.35394255 -.00000051  00000-0  00000+0 0  9993
2 29520   0.0250  51.2952 0000348 158.9736 340.4312  1.00270693 30823
O3B FM5                 
1 39188U 13031A   15077.54413360 -.00000025  00000-0  00000+0 0  9990
2 39188   0.0322 346.3706 0003365   1.9424  11.6741  5.00116480 31564
O3B FM4                 
1 39189U 13031B   15079.74145616 -.00000027  00000-0  00000+0 0  9993
2 39189   0.0490   2.2241 0002748 255.0873 102.6547  5.00116107 31670
O3B FM2                 
1 39190U 13031C   15080.24153677 -.00000028  00000-0  00000+0 0  9999
2 39190   0.0518   7.2350 0003237 237.3055 115.4221  5.00116761 31697
O3B PFM                 
1 39191U 13031D   15078.84354020 -.00000026  00000-0  00000+0 0  9996
2 39191   0.0319   0.0769 0003207 345.1165  14.7934  5.00116859 31633
O3B FM3                 
1 40079U 14038A   15080.55398652 -.00000028  00000-0  00000+0 0  9993
2 40079   0.0412   2.5404 0004836   8.2202 349.2458  5.00116446 12701
O3B FM7                 
1 40080U 14038B   15075.31216361 -.00000022  00000-0  00000+0 0  9993
2 40080   0.0401 355.1690 0003299   2.0826   2.7369  5.00116103 12466
O3B FM6                 
1 40081U 14038C   15078.53265725 -.00000026  00000-0  00000+0 0  9993
2 40081   0.0427   2.1563 0003534   1.5027 356.3377  5.00116450 12622
O3B FM8                 
1 40082U 14038D   15079.77637602 -.00000027  00000-0  00000+0 0  9999
2 40082   0.0461   2.9396 0003543 336.3424  20.6988  5.00115879 12660
O3B FM10                
1 40348U 14083A   15078.59947092 -.00000026  00000-0  00000+0 0  9999
2 40348   0.0354 359.7223 0002068  21.5431 338.7373  5.00116331  4565
O3B FM11                
1 40349U 14083B   15080.42063281 -.00000028  00000-0  00000+0 0  9996
2 40349   0.0336 354.3943 0002036  10.3359 355.2670  5.00116567  4651
O3B FM12                
1 40350U 14083C   15079.88784263 -.00000028  00000-0  00000+0 0  9996
2 40350   0.0350 359.2545 0005408 331.5523  29.1698  5.00106095  4627
O3B FM9                 
1 40351U 14083D   15077.86654347 -.00000025  00000-0  00000+0 0  9999
2 40351   0.0312 352.8241 0002282  16.0932 351.0799  5.00116510  4525
